HULIANWANG DIGUI-153    
1 67529U 26013H   26021.44172990 -.00000104  00000+0  31747-4 0  9999
2 67529  50.0011 176.6007 0008855 242.1618 117.8388 13.98470310   298
HULIANWANG DIGUI-154    
1 67530U 26013J   26021.22721932 -.00000008  00000+0  98151-4 0  9998
2 67530  50.0045 177.4718 0008317 246.2151 113.7880 13.98568419   262
CZ-12 R/B               
1 67531U 26013K   26023.67912562  .00000080  00000+0  11966-3 0  9998
2 67531  49.9898 167.1520 0069038 142.9302 217.6404 14.14451189   619
